{"type": "FeatureCollection", "features": [{"type": "Feature", "properties": {"norad_id": 50032, "name": "COSMOS 1408 DEB", "group": "cosmos-1408-debris", "lat": 50.72429435096378, "lon": 57.96002261117289, "alt_km": 430.2456402097514, "timestamp": "2025-12-22T05:49:03.769961+00:00", "meta": {"OBJECT_NAME": "COSMOS 1408 DEB", "OBJECT_ID": "1982-092RU", "EPOCH": "2025-12-21T04:44:15.700416", "MEAN_MOTION": 15.45771995, "ECCENTRICITY": 0.00160807, "INCLINATION": 82.5635, "RA_OF_ASC_NODE": 49.8404, "ARG_OF_PERICENTER": 177.0061, "MEAN_ANOMALY": 183.1287, "EPHEMERIS_TYPE": 0, "CLASSIFICATION_TYPE": "U", "NORAD_CAT_ID": 50032, "ELEMENT_SET_NO": 999, "REV_AT_EPOCH": 22734, "BSTAR": 7.6660607e-05, "MEAN_MOTION_DOT": 3.769e-05, "MEAN_MOTION_DDOT": 0}, "tle": {"line1": "1 50032U 82092RU  25355.19740394  .00003769  00000+0  76661-4 0  9992", "line2": "2 50032  82.5635  49.8404 0016080 177.0061 183.1287 15.45771995227348"}}, "geometry": {"type": "Point", "coordinates": [57.96002261117289, 50.72429435096378]}}, {"type": "Feature", "properties": {"norad_id": 50058, "name": "COSMOS 1408 DEB", "group": "cosmos-1408-debris", "lat": 9.538549768817349, "lon": -121.85686812130331, "alt_km": 378.6820714537962, "timestamp": "2025-12-22T05:49:03.769983+00:00", "meta": {"OBJECT_NAME": "COSMOS 1408 DEB", "OBJECT_ID": "1982-092SW", "EPOCH": "2025-12-21T15:16:45.728832", "MEAN_MOTION": 15.64603734, "ECCENTRICITY": 0.00161, "INCLINATION": 82.6123, "RA_OF_ASC_NODE": 60.027, "ARG_OF_PERICENTER": 68.7311, "MEAN_ANOMALY": 291.5665, "EPHEMERIS_TYPE": 0, "CLASSIFICATION_TYPE": "U", "NORAD_CAT_ID": 50058, "ELEMENT_SET_NO": 999, "REV_AT_EPOCH": 22943, "BSTAR": 0.00028478, "MEAN_MOTION_DOT": 0.00027752, "MEAN_MOTION_DDOT": 0}, "tle": {"line1": "1 50058U 82092SW  25355.63664038  .00027752  00000+0  28478-3 0  9999", "line2": "2 50058  82.6123  60.0270 0016100  68.7311 291.5665 15.64603734229434"}}, "geometry": {"type": "Point", "coordinates": [-121.85686812130331, 9.538549768817349]}}, {"type": "Feature", "properties": {"norad_id": 50404, "name": "COSMOS 1408 DEB", "group": "cosmos-1408-debris", "lat": 15.875971810678525, "lon": -152.47216552655757, "alt_km": 621.4763401926966, "timestamp": "2025-12-22T05:49:03.769996+00:00", "meta": {"OBJECT_NAME": "COSMOS 1408 DEB", "OBJECT_ID": "1982-092ADS", "EPOCH": "2025-12-21T15:28:45.909120", "MEAN_MOTION": 15.15078556, "ECCENTRICITY": 0.0168442, "INCLINATION": 82.2035, "RA_OF_ASC_NODE": 205.9075, "ARG_OF_PERICENTER": 168.3631, "MEAN_ANOMALY": 192.1574, "EPHEMERIS_TYPE": 0, "CLASSIFICATION_TYPE": "U", "NORAD_CAT_ID": 50404, "ELEMENT_SET_NO": 999, "REV_AT_EPOCH": 21328, "BSTAR": 0.0028703, "MEAN_MOTION_DOT": 0.00077658, "MEAN_MOTION_DDOT": 0}, "tle": {"line1": "1 50404U 82092ADS 25355.64497580  .00077658  00000+0  28703-2 0  9991", "line2": "2 50404  82.2035 205.9075 0168442 168.3631 192.1574 15.15078556213284"}}, "geometry": {"type": "Point", "coordinates": [-152.47216552655757, 15.875971810678525]}}, {"type": "Feature", "properties": {"norad_id": 50621, "name": "COSMOS 1408 DEB", "group": "cosmos-1408-debris", "lat": -67.88154312973403, "lon": 45.555594567661544, "alt_km": 422.82985890582404, "timestamp": "2025-12-22T05:49:03.770008+00:00", "meta": {"OBJECT_NAME": "COSMOS 1408 DEB", "OBJECT_ID": "1982-092ALR", "EPOCH": "2025-12-21T16:14:04.046208", "MEAN_MOTION": 15.57088475, "ECCENTRICITY": 0.0029057, "INCLINATION": 82.5698, "RA_OF_ASC_NODE": 64.8749, "ARG_OF_PERICENTER": 120.1733, "MEAN_ANOMALY": 240.2407, "EPHEMERIS_TYPE": 0, "CLASSIFICATION_TYPE": "U", "NORAD_CAT_ID": 50621, "ELEMENT_SET_NO": 999, "REV_AT_EPOCH": 22389, "BSTAR": 0.00031041, "MEAN_MOTION_DOT": 0.00022981, "MEAN_MOTION_DDOT": 0}, "tle": {"line1": "1 50621U 82092ALR 25355.67643572  .00022981  00000+0  31041-3 0  9998", "line2": "2 50621  82.5698  64.8749 0029057 120.1733 240.2407 15.57088475223895"}}, "geometry": {"type": "Point", "coordinates": [45.555594567661544, -67.88154312973403]}}]}